SOYUZ-MS 28             
1 66664U 25275A   26001.79090475  .00014103  00000+0  26338-3 0  9992
2 66664  51.6329  43.1850 0007502 328.5908  31.4631 15.49013666545964
1998-067XS              
1 66906U 98067XS  26001.57282294  .00040223  00000+0  66629-3 0  9997
2 66906  51.6323  43.9794 0002498 307.6709  52.4054 15.51757321  4696
1998-067XT              
1 66907U 98067XT  26002.12826208  .00101951  00000+0  15131-2 0  9996
2 66907  51.6312  40.9390 0003907 353.0267   7.0669 15.54385656  4783
1998-067XU              
1 66908U 98067XU  26002.12716485  .00101141  00000+0  15033-2 0  9994
2 66908  51.6300  40.9310 0003953 349.1199  10.9706 15.54347368  4787
SILVERSAT               
1 66909U 98067XV  26002.12357156  .00113309  00000+0  16502-2 0  9992
2 66909  51.6303  40.9076 0004043 356.0931   4.0028 15.54849160  4780
1998-067XW              
1 66910U 98067XW  26001.54410722  .00109070  00000+0  16086-2 0  9995
2 66910  51.6307  43.7876 0003274 324.6151  35.4622 15.54525863  4694
1998-067XX              
1 66911U 98067XX  26001.40868367  .00114538  00000+0  16421-2 0  9991
2 66911  51.6313  44.3841 0003115 337.3069  22.7784 15.55275272  4666
1998-067XY              
1 66912U 98067XY  26002.13705014  .00078094  00000+0  12053-2 0  9995
2 66912  51.6316  40.9983 0003773 341.2098  18.8753 15.53431066  4772
